GLOBALSTAR M094         
1 39074U 13005C   23307.59297321 -.00000080  00000+0  13233-3 0  9998
2 39074  51.9945 183.3486 0001126  74.3244 285.7746 12.62269363497666
GLOBALSTAR M096         
1 39075U 13005D   23307.05187247 -.00000066  00000+0  21040-3 0  9994
2 39075  52.0072 233.0467 0001050  57.5222 302.5746 12.62265556496518
GLOBALSTAR M078         
1 39076U 13005E   23307.73795377 -.00000089  00000+0  82130-4 0  9992
2 39076  51.9882 316.2724 0000800 331.9975  28.0848 12.62262788495439
GLOBALSTAR M095         
1 39077U 13005F   23307.76454380 -.00000084  00000+0  10772-3 0  9999
2 39077  51.9808 313.6833 0000812  12.8512 347.2375 12.62270298495442
GLOBALSTAR M087         
1 52888U 22064A   23307.24882539 -.00000081  00000+0  90411-4 0  9999
2 52888  51.9758 279.6934 0009573 145.5145 214.6379 13.37556695 67158
